{"type": "FeatureCollection", "features": [ {"type": "Feature", "properties": {"norad_id": 66990, "name": "TJS-22", "group": "last-30-days", "lat": -19.372773518793867, "lon": -165.896737119574, "alt_km": 5393.472894607773, "timestamp": "2025-12-12T09:49:07.483789+00:00", "meta": {"OBJECT_NAME": "TJS-22", "OBJECT_ID": "2025-290A", "EPOCH": "2025-12-10T07:11:32.845344", "MEAN_MOTION": 2.15443148, "ECCENTRICITY": 0.6664534, "INCLINATION": 20.1261, "RA_OF_ASC_NODE": 301.1464, "ARG_OF_PERICENTER": 180.6877, "MEAN_ANOMALY": 177.6237, "EPHEMERIS_TYPE": 0, "CLASSIFICATION_TYPE": "U", "NORAD_CAT_ID": 66990, "ELEMENT_SET_NO": 999, "REV_AT_EPOCH": 3, "BSTAR": 0.079788243, "MEAN_MOTION_DOT": -3.8e-07, "MEAN_MOTION_DDOT": 0}, "tle": {"line1": "1 66990U 25290A   25344.29968571 -.00000038  00000+0  79788-1 0  9994", "line2": "2 66990  20.1261 301.1464 6664534 180.6877 177.6237  2.15443148    32"}}, "geometry": {"type": "Point", "coordinates": [-165.896737119574, -19.372773518793867]}}, {"type": "Feature", "properties": {"norad_id": 66991, "name": "CZ-3B R/B", "group": "last-30-days", "lat": 2.9935577346708966, "lon": -52.713655693843414, "alt_km": 33989.51851069742, "timestamp": "2025-12-12T09:49:07.483802+00:00", "meta": {"OBJECT_NAME": "CZ-3B R/B", "OBJECT_ID": "2025-290B", "EPOCH": "2025-12-10T06:44:55.577184", "MEAN_MOTION": 2.37676924, "ECCENTRICITY": 0.72420555, "INCLINATION": 28.4645, "RA_OF_ASC_NODE": 302.5976, "ARG_OF_PERICENTER": 179.3847, "MEAN_ANOMALY": 182.8677, "EPHEMERIS_TYPE": 0, "CLASSIFICATION_TYPE": "U", "NORAD_CAT_ID": 66991, "ELEMENT_SET_NO": 999, "REV_AT_EPOCH": 3, "BSTAR": 0.00043781284, "MEAN_MOTION_DOT": 0.00018897, "MEAN_MOTION_DDOT": 4.56211e-07}, "tle": {"line1": "1 66991U 25290B   25344.28119881  .00018897  45621-6  43781-3 0  9998", "line2": "2 66991  28.4645 302.5976 7242055 179.3847 182.8677  2.37676924    36"}}, "geometry": {"type": "Point", "coordinates": [-52.713655693843414, 2.9935577346708966]}}, {"type": "Feature", "properties": {"norad_id": 66993, "name": "2025-292A", "group": "last-30-days", "lat": 6.720772500917849, "lon": 58.05505998060293, "alt_km": 555.6073448164643, "timestamp": "2025-12-12T09:49:07.484001+00:00", "meta": {"OBJECT_NAME": "2025-292A", "OBJECT_ID": "2025-292A", "EPOCH": "2025-12-12T00:12:40.620672", "MEAN_MOTION": 15.04477454, "ECCENTRICITY": 0.001403, "INCLINATION": 97.6534, "RA_OF_ASC_NODE": 58.5666, "ARG_OF_PERICENTER": 275.9655, "MEAN_ANOMALY": 83.9971, "EPHEMERIS_TYPE": 0, "CLASSIFICATION_TYPE": "U", "NORAD_CAT_ID": 66993, "ELEMENT_SET_NO": 999, "REV_AT_EPOCH": 28, "BSTAR": 0.00062898, "MEAN_MOTION_DOT": 8.763e-05, "MEAN_MOTION_DDOT": 0}, "tle": {"line1": "1 66993U 25292A   25346.00880348  .00008763  00000+0  62898-3 0  9993", "line2": "2 66993  97.6534  58.5666 0014030 275.9655  83.9971 15.04477454   280"}}, "geometry": {"type": "Point", "coordinates": [58.05505998060293, 6.720772500917849]}}, {"type": "Feature", "properties": {"norad_id": 66994, "name": "2025-292B", "group": "last-30-days", "lat": 7.036204706916579, "lon": 58.01163177490805, "alt_km": 555.3822787061308, "timestamp": "2025-12-12T09:49:07.484014+00:00", "meta": {"OBJECT_NAME": "2025-292B", "OBJECT_ID": "2025-292B", "EPOCH": "2025-12-11T21:01:03.751968", "MEAN_MOTION": 15.04515803, "ECCENTRICITY": 0.00140794, "INCLINATION": 97.6549, "RA_OF_ASC_NODE": 58.4345, "ARG_OF_PERICENTER": 277.2072, "MEAN_ANOMALY": 82.7553, "EPHEMERIS_TYPE": 0, "CLASSIFICATION_TYPE": "U", "NORAD_CAT_ID": 66994, "ELEMENT_SET_NO": 999, "REV_AT_EPOCH": 26, "BSTAR": 0.00010044116, "MEAN_MOTION_DOT": 1.347e-05, "MEAN_MOTION_DDOT": 0}, "tle": {"line1": "1 66994U 25292B   25345.87573787  .00001347  00000+0  10044-3 0  9991", "line2": "2 66994  97.6549  58.4345 0014079 277.2072  82.7553 15.04515803   263"}}, "geometry": {"type": "Point", "coordinates": [58.01163177490805, 7.036204706916579]}}, {"type": "Feature", "properties": {"norad_id": 66995, "name": "2025-292C", "group": "last-30-days", "lat": 7.059503999325311, "lon": 58.008365322673065, "alt_km": 555.3438738729237, "timestamp": "2025-12-12T09:49:07.484024+00:00", "meta": {"OBJECT_NAME": "2025-292C", "OBJECT_ID": "2025-292C", "EPOCH": "2025-12-11T21:01:03.496224", "MEAN_MOTION": 15.04519537, "ECCENTRICITY": 0.0014385, "INCLINATION": 97.653, "RA_OF_ASC_NODE": 58.4343, "ARG_OF_PERICENTER": 277.3974, "MEAN_ANOMALY": 82.5617, "EPHEMERIS_TYPE": 0, "CLASSIFICATION_TYPE": "U", "NORAD_CAT_ID": 66995, "ELEMENT_SET_NO": 999, "REV_AT_EPOCH": 26, "BSTAR": 0.00011824, "MEAN_MOTION_DOT": 1.597e-05, "MEAN_MOTION_DDOT": 0}, "tle": {"line1": "1 66995U 25292C   25345.87573491  .00001597  00000+0  11824-3 0  9998", "line2": "2 66995  97.6530  58.4343 0014385 277.3974  82.5617 15.04519537   261"}}, "geometry": {"type": "Point", "coordinates": [58.008365322673065, 7.059503999325311]}}, {"type": "Feature", "properties": {"norad_id": 66996, "name": "2025-292D", "group": "last-30-days", "lat": 7.535828396474269, "lon": 57.944238655509075, "alt_km": 554.7854351474334, "timestamp": "2025-12-12T09:49:07.484034+00:00", "meta": {"OBJECT_NAME": "2025-292D", "OBJECT_ID": "2025-292D", "EPOCH": "2025-12-11T21:00:57.670272", "MEAN_MOTION": 15.04579315, "ECCENTRICITY": 0.0013407, "INCLINATION": 97.652, "RA_OF_ASC_NODE": 58.4351, "ARG_OF_PERICENTER": 279.6596, "MEAN_ANOMALY": 80.3115, "EPHEMERIS_TYPE": 0, "CLASSIFICATION_TYPE": "U", "NORAD_CAT_ID": 66996, "ELEMENT_SET_NO": 999, "REV_AT_EPOCH": 26, "BSTAR": 0.00011811, "MEAN_MOTION_DOT": 1.598e-05, "MEAN_MOTION_DDOT": 0}, "tle": {"line1": "1 66996U 25292D   25345.87566748  .00001598  00000+0  11811-3 0  9993", "line2": "2 66996  97.6520  58.4351 0013407 279.6596  80.3115 15.04579315   268"}}, "geometry": {"type": "Point", "coordinates": [57.944238655509075, 7.535828396474269]}}, {"type": "Feature", "properties": {"norad_id": 66997, "name": "2025-292E", "group": "last-30-days", "lat": 8.144851789506228, "lon": 57.86027672722563, "alt_km": 554.3436939559369, "timestamp": "2025-12-12T09:49:07.484046+00:00", "meta": {"OBJECT_NAME": "2025-292E", "OBJECT_ID": "2025-292E", "EPOCH": "2025-12-11T21:00:50.206176", "MEAN_MOTION": 15.04655353, "ECCENTRICITY": 0.0013781, "INCLINATION": 97.6541, "RA_OF_ASC_NODE": 58.4346, "ARG_OF_PERICENTER": 280.9887, "MEAN_ANOMALY": 78.9789, "EPHEMERIS_TYPE": 0, "CLASSIFICATION_TYPE": "U", "NORAD_CAT_ID": 66997, "ELEMENT_SET_NO": 999, "REV_AT_EPOCH": 25, "BSTAR": 0.00011812, "MEAN_MOTION_DOT": 1.601e-05, "MEAN_MOTION_DDOT": 0}, "tle": {"line1": "1 66997U 25292E   25345.87558109  .00001601  00000+0  11812-3 0  9992", "line2": "2 66997  97.6541  58.4346 0013781 280.9887  78.9789 15.04655353   255"}}, "geometry": {"type": "Point", "coordinates": [57.86027672722563, 8.144851789506228]}}, {"type": "Feature", "properties": {"norad_id": 66998, "name": "2025-292F", "group": "last-30-days", "lat": 9.318060026881946, "lon": 57.69898815749566, "alt_km": 553.923591966598, "timestamp": "2025-12-12T09:49:07.484059+00:00", "meta": {"OBJECT_NAME": "2025-292F", "OBJECT_ID": "2025-292F", "EPOCH": "2025-12-11T21:00:35.828352", "MEAN_MOTION": 15.04802497, "ECCENTRICITY": 0.0014607, "INCLINATION": 97.6565, "RA_OF_ASC_NODE": 58.4348, "ARG_OF_PERICENTER": 280.9703, "MEAN_ANOMALY": 78.988, "EPHEMERIS_TYPE": 0, "CLASSIFICATION_TYPE": "U", "NORAD_CAT_ID": 66998, "ELEMENT_SET_NO": 999, "REV_AT_EPOCH": 26, "BSTAR": 0.00011825, "MEAN_MOTION_DOT": 1.61e-05, "MEAN_MOTION_DDOT": 0}, "tle": {"line1": "1 66998U 25292F   25345.87541468  .00001610  00000+0  11825-3 0  9997", "line2": "2 66998  97.6565  58.4348 0014607 280.9703  78.9880 15.04802497   265"}}, "geometry": {"type": "Point", "coordinates": [57.69898815749566, 9.318060026881946]}}, {"type": "Feature", "properties": {"norad_id": 66999, "name": "2025-292G", "group": "last-30-days", "lat": 9.814766435808332, "lon": 57.631709961113934, "alt_km": 553.4109905920641, "timestamp": "2025-12-12T09:49:07.484073+00:00", "meta": {"OBJECT_NAME": "2025-292G", "OBJECT_ID": "2025-292G", "EPOCH": "2025-12-11T21:00:29.832192", "MEAN_MOTION": 15.04867239, "ECCENTRICITY": 0.0014449, "INCLINATION": 97.6571, "RA_OF_ASC_NODE": 58.4362, "ARG_OF_PERICENTER": 282.848, "MEAN_ANOMALY": 77.1132, "EPHEMERIS_TYPE": 0, "CLASSIFICATION_TYPE": "U", "NORAD_CAT_ID": 66999, "ELEMENT_SET_NO": 999, "REV_AT_EPOCH": 26, "BSTAR": 0.00011819, "MEAN_MOTION_DOT": 1.612e-05, "MEAN_MOTION_DDOT": 0}, "tle": {"line1": "1 66999U 25292G   25345.87534528  .00001612  00000+0  11819-3 0  9992", "line2": "2 66999  97.6571  58.4362 0014449 282.8480  77.1132 15.04867239   262"}}, "geometry": {"type": "Point", "coordinates": [57.631709961113934, 9.814766435808332]}}, {"type": "Feature", "properties": {"norad_id": 67000, "name": "2025-292H", "group": "last-30-days", "lat": 9.771775928222317, "lon": 57.63490522368313, "alt_km": 553.3105491950064, "timestamp": "2025-12-12T09:49:07.484083+00:00", "meta": {"OBJECT_NAME": "2025-292H", "OBJECT_ID": "2025-292H", "EPOCH": "2025-12-11T21:00:30.464640", "MEAN_MOTION": 15.04864273, "ECCENTRICITY": 0.0014339, "INCLINATION": 97.6576, "RA_OF_ASC_NODE": 58.4335, "ARG_OF_PERICENTER": 283.4517, "MEAN_ANOMALY": 76.5111, "EPHEMERIS_TYPE": 0, "CLASSIFICATION_TYPE": "U", "NORAD_CAT_ID": 67000, "ELEMENT_SET_NO": 999, "REV_AT_EPOCH": 13, "BSTAR": 0.00023206, "MEAN_MOTION_DOT": 3.225e-05, "MEAN_MOTION_DDOT": 0}, "tle": {"line1": "1 67000U 25292H   25345.87535260  .00003225  00000+0  23206-3 0  9995", "line2": "2 67000  97.6576  58.4335 0014339 283.4517  76.5111 15.04864273   138"}}, "geometry": {"type": "Point", "coordinates": [57.63490522368313, 9.771775928222317]}}]}